FLOCK 4G-7              
1 62624U 25009R   26068.79996108  .00011422  00000+0  43168-3 0  9991
2 62624  97.3984 150.8270 0001396 336.9783  23.1393 15.27141471 63725
STARLINK-36072          
1 66856U 25281J   26068.18350921  .00017809  00000+0  65490-3 0  9991
2 66856  42.9959 346.7232 0000769 265.3751  94.7013 15.27591238 16104
